{
    "element_count": 15,
    "links": {
        "next": "http://www.neowsapp.com/rest/v1/feed?start_date=2019-10-25&end_date=2019-10-25&detailed=true&api_key=13L6o25sYaUm7Ac1Op2e09FrWudmH6N0rRhVBoCx",
        "prev": "http://www.neowsapp.com/rest/v1/feed?start_date=2019-10-23&end_date=2019-10-23&detailed=true&api_key=13L6o25sYaUm7Ac1Op2e09FrWudmH6N0rRhVBoCx",
        "self": "http://www.neowsapp.com/rest/v1/feed?start_date=2019-10-24&end_date=2019-10-24&detailed=true&api_key=13L6o25sYaUm7Ac1Op2e09FrWudmH6N0rRhVBoCx"
    },
    "near_earth_objects": {
        "2019-10-24": [
            {
                "absolute_magnitude_h": 20.0,
                "close_approach_data": [
                    {
                        "close_approach_date": "2019-10-24",
                        "close_approach_date_full": "2019-Oct-24 04:14",
                        "epoch_date_close_approach": 1571890440000,
                        "miss_distance": {
                            "astronomical": "0.3332599493",
                            "kilometers": "49854978.571587991",
                            "lunar": "129.6381202777",
                            "miles": "30978447.1947006358"
                        },
                        "orbiting_body": "Earth",
                        "relative_velocity": {
                            "kilometers_per_hour": "80427.5904525401",
                            "kilometers_per_second": "22.3409973479",
                            "miles_per_hour": "49974.5769675797"
                        }
                    }
                ],
                "estimated_diameter": {
                    "feet": {
                        "estimated_diameter_max": 1949.9569797852,
                        "estimated_diameter_min": 872.047272
                    },
                    "kilometers": {
                        "estimated_diameter_max": 0.5943468684,
                        "estimated_diameter_min": 0.2658
                    },
                    "meters": {
                        "estimated_diameter_max": 594.3468684194,
                        "estimated_diameter_min": 265.8
                    },
                    "miles": {
                        "estimated_diameter_max": 0.369309908,
                        "estimated_diameter_min": 0.1651604118
                    }
                },
                "id": "3616340",
                "is_potentially_hazardous_asteroid": false,
                "is_sentry_object": false,
                "links": {
                    "self": "http://www.neowsapp.com/rest/v1/neo/3616340?api_key=13L6o25sYaUm7Ac1Op2e09FrWudmH6N0rRhVBoCx"
                },
                "name": "(2012 VZ4)",
                "nasa_jpl_url": "http://ssd.jpl.nasa.gov/sbdb.cgi?sstr=3616340",
                "neo_reference_id": "3616340",
                "orbital_data": {
                    "aphelion_distance": "2.47272661155779",
                    "ascending_node_longitude": "32.28979289822711",
                    "data_arc_in_days": 66,
                    "eccentricity": ".4057521498802743",
                    "epoch_osculation": "2458600.5",
                    "equinox": "J2000",
                    "first_observation_date": "2012-11-02",
                    "inclination": "31.43020579254537",
                    "jupiter_tisserand_invariant": "3.865",
                    "last_observation_date": "2013-01-07",
                    "mean_anomaly": "300.7982573046875",
                    "mean_motion": ".4224769841877835",
                    "minimum_orbit_intersection": ".19472",
                    "observations_used": 44,
                    "orbit_class": {
                        "orbit_class_description": "Near-Earth asteroid orbits similar to that of 1221 Amor",
                        "orbit_class_range": "1.017 AU < q (perihelion) < 1.3 AU",
                        "orbit_class_type": "AMO"
                    },
                    "orbit_determination_date": "2017-04-06 08:48:16",
                    "orbit_id": "15",
                    "orbit_uncertainty": "6",
                    "orbital_period": "852.117425265435",
                    "perihelion_argument": "300.0498928538917",
                    "perihelion_distance": "1.045285595314365",
                    "perihelion_time": "2458740.630101546546",
                    "semi_major_axis": "1.759006103436077"
                }
            },
            {
                "absolute_magnitude_h": 19.5,
                "close_approach_data": [
                    {
                        "close_approach_date": "2019-10-24",
                        "close_approach_date_full": "2019-Oct-24 04:44",
                        "epoch_date_close_approach": 1571892240000,
                        "miss_distance": {
                            "astronomical": "0.4384916241",
                            "kilometers": "65597412.978200667",
                            "lunar": "170.5732417749",
                            "miles": "40760342.3424645246"
                        },
                        "orbiting_body": "Earth",
                        "relative_velocity": {
                            "kilometers_per_hour": "119342.9970587938",
                            "kilometers_per_second": "33.1508325163",
                            "miles_per_hour": "74155.0972557822"
                        }
                    }
                ],
                "estimated_diameter": {
                    "feet": {
                        "estimated_diameter_max": 2454.8503937571,
                        "estimated_diameter_min": 1097.8424710066
                    },
                    "kilometers": {
                        "estimated_diameter_max": 0.7482383761,
                        "estimated_diameter_min": 0.3346223745
                    },
                    "meters": {
                        "estimated_diameter_max": 748.2383760735,
                        "estimated_diameter_min": 334.6223744549
                    },
                    "miles": {
                        "estimated_diameter_max": 0.464933628,
                        "estimated_diameter_min": 0.2079246394
                    }
                },
                "id": "2476093",
                "is_potentially_hazardous_asteroid": false,
                "is_sentry_object": false,
                "links": {
                    "self": "http://www.neowsapp.com/rest/v1/neo/2476093?api_key=13L6o25sYaUm7Ac1Op2e09FrWudmH6N0rRhVBoCx"
                },
                "name": "476093 (2007 TC66)",
                "nasa_jpl_url": "http://ssd.jpl.nasa.gov/sbdb.cgi?sstr=2476093",
                "neo_reference_id": "2476093",
                "orbital_data": {
                    "aphelion_distance": "3.537943368114729",
                    "ascending_node_longitude": "102.4861586635128",
                    "data_arc_in_days": 3285,
                    "eccentricity": ".7101828686594369",
                    "epoch_osculation": "2458600.5",
                    "equinox": "J2000",
                    "first_observation_date": "2007-10-12",
                    "inclination": "10.58928264154899",
                    "jupiter_tisserand_invariant": "3.388",
                    "last_observation_date": "2016-10-09",
                    "mean_anomaly": "286.5082430748175",
                    "mean_motion": ".3312390924826544",
                    "minimum_orbit_intersection": ".139479",
                    "observations_used": 71,
                    "orbit_class": {
                        "orbit_class_description": "Near-Earth asteroid orbits which cross the Earth\u2019s orbit similar to that of 1862 Apollo",
                        "orbit_class_range": "a (semi-major axis) > 1.0 AU; q (perihelion) < 1.017 AU",
                        "orbit_class_type": "APO"
                    },
                    "orbit_determination_date": "2017-04-06 09:19:03",
                    "orbit_id": "27",
                    "orbit_uncertainty": "0",
                    "orbital_period": "1086.828240295495",
                    "perihelion_argument": "34.90556798840018",
                    "perihelion_distance": ".5995596240512735",
                    "perihelion_time": "2458822.369213486723",
                    "semi_major_axis": "2.068751496083001"
                }
            }
        ]
    }
}
